OBJECT_NAME,OBJECT_ID,EPOCH,MEAN_MOTION,ECCENTRICITY,INCLINATION,RA_OF_ASC_NODE,ARG_OF_PERICENTER,MEAN_ANOMALY,EPHEMERIS_TYPE,CLASSIFICATION_TYPE,NORAD_CAT_ID,ELEMENT_SET_NO,REV_AT_EPOCH,BSTAR,MEAN_MOTION_DOT,MEAN_MOTION_DDOT
LEMUR-2-STARLIGHT,2025-276DY,2026-07-01T02:53:16.689120,14.99203883,.0014611,97.5236,252.2827,88.0383,272.2514,0,U,66783,999,3228,.68767E-3,.8343E-4,0
LEMUR-2-TARTIFLETTE,2025-276DZ,2026-06-30T04:25:18.400800,14.99191276,.00136396,97.5241,251.3864,98.1987,262.0784,0,U,66784,999,3214,.4249391E-3,.5128E-4,0
LEMUR-2-VUKASIN,2025-276EA,2026-06-30T04:00:08.558208,15.00435599,.00051858,97.5280,251.6977,94.3180,265.8637,0,U,66785,999,3209,.11226057E-3,.1355E-4,0
LEMUR-2-HOTSPUR-TOM,2025-276EB,2026-06-30T23:29:17.323872,14.99104078,.0014351,97.5233,252.1321,87.5938,272.6928,0,U,66786,999,3219,.57649E-3,.6965E-4,0
LEMUR-2-MYRA,2025-276EC,2026-07-01T03:10:56.570880,15.00438886,.0018096,97.5216,252.5570,97.0589,263.2694,0,U,66787,999,3230,.72821E-3,.914E-4,0
LEMUR-2 FIKRETDENGIZ,2026-004A,2026-06-30T23:36:13.072896,14.88424445,.0010534,97.8012,180.3296,94.5684,265.6736,0,U,67363,999,2533,.47266E-3,.4334E-4,0
TWILIGHT-1 OBJECT B,2026-004B,2026-06-29T22:30:27.043200,14.87746800,.00102713,97.8064,179.3095,88.5643,271.6750,0,U,67364,999,2518,.22909846E-3,.2037E-4,0
LEMUR-2-MARIO-SOUSA,2026-004C,2026-06-29T22:58:08.531616,14.88616676,.0010244,97.7986,179.3148,98.5300,261.7078,0,U,67365,999,2519,.55507865E-3,.5124E-4,0
LEMUR-2-SONNENBLUME,2026-004E,2026-06-30T11:52:56.594208,14.88385156,.00097386,97.7983,179.8240,98.4159,261.8163,0,U,67367,999,2527,.31286942E-3,.2847E-4,0
LEMUR-2-WOBLER,2026-004F,2026-06-29T22:46:30.102528,14.88603443,.00100563,97.8036,179.4215,91.3444,268.8925,0,U,67368,999,2519,.49983798E-3,.4607E-4,0
LEMUR-2-GRAM-E-SUE,2026-004H,2026-06-30T11:28:10.077888,14.88528878,.00088481,97.7970,179.8228,100.3347,259.8868,0,U,67370,999,2527,.30007713E-3,.2737E-4,0
LEMUR-2-KATIE,2026-004AA,2026-06-30T23:43:00.867072,14.90134010,.0004488,97.8031,180.8294,63.3134,296.8543,0,U,67387,999,2536,.43667E-3,.4171E-4,0
LEMUR-2-HCS-BAZUS,2026-004AB,2026-06-30T23:41:04.140672,14.90201155,.0003901,97.8021,180.8079,62.7811,297.3804,0,U,67388,999,2536,.5574E-3,.5349E-4,0
