LEMUR-2-STARLIGHT       
1 66783U 25276DY  26182.12033205  .00008343  00000+0  68767-3 0  9991
2 66783  97.5236 252.2827 0014611  88.0383 272.2514 14.99203883 32280
LEMUR-2-TARTIFLETTE     
1 66784U 25276DZ  26181.18424075  .00005128  00000+0  42494-3 0  9993
2 66784  97.5241 251.3864 0013639  98.1987 262.0784 14.99191276 32142
LEMUR-2-VUKASIN         
1 66785U 25276EA  26181.16676572  .00001355  00000+0  11226-3 0  9990
2 66785  97.5280 251.6977 0005185  94.3180 265.8637 15.00435599 32098
LEMUR-2-HOTSPUR-TOM     
1 66786U 25276EB  26181.97867273  .00006965  00000+0  57649-3 0  9991
2 66786  97.5233 252.1321 0014351  87.5938 272.6928 14.99104078 32198
LEMUR-2-MYRA            
1 66787U 25276EC  26182.13259920  .00009140  00000+0  72821-3 0  9992
2 66787  97.5216 252.5570 0018096  97.0589 263.2694 15.00438886 32307
LEMUR-2 FIKRETDENGIZ    
1 67363U 26004A   26181.98348464  .00004334  00000+0  47266-3 0  9992
2 67363  97.8012 180.3296 0010534  94.5684 265.6736 14.88424445 25334
TWILIGHT-1 OBJECT B     
1 67364U 26004B   26180.93781300  .00002037  00000+0  22910-3 0  9994
2 67364  97.8064 179.3095 0010271  88.5643 271.6750 14.87746800 25180
LEMUR-2-MARIO-SOUSA     
1 67365U 26004C   26180.95704319  .00005124  00000+0  55508-3 0  9991
2 67365  97.7986 179.3148 0010244  98.5300 261.7078 14.88616676 25195
LEMUR-2-SONNENBLUME     
1 67367U 26004E   26181.49509947  .00002847  00000+0  31287-3 0  9990
2 67367  97.7983 179.8240 0009738  98.4159 261.8163 14.88385156 25270
LEMUR-2-WOBLER          
1 67368U 26004F   26180.94895952  .00004607  00000+0  49984-3 0  9993
2 67368  97.8036 179.4215 0010056  91.3444 268.8925 14.88603443 25199
LEMUR-2-GRAM-E-SUE      
1 67370U 26004H   26181.47789442  .00002737  00000+0  30008-3 0  9990
2 67370  97.7970 179.8228 0008848 100.3347 259.8868 14.88528878 25278
LEMUR-2-KATIE           
1 67387U 26004AA  26181.98820448  .00004171  00000+0  43667-3 0  9995
2 67387  97.8031 180.8294 0004488  63.3134 296.8543 14.90134010 25363
LEMUR-2-HCS-BAZUS       
1 67388U 26004AB  26181.98685348  .00005349  00000+0  55740-3 0  9997
2 67388  97.8021 180.8079 0003901  62.7811 297.3804 14.90201155 25369
